#dP2024  4  3  0  0  0.00000000      96 __u+U IGS20 FIT  IAC
## 2308 259200.00000000   900.00000000 60403 0.0000000000000
+  129   C01C02C04C05C06C07C08C09C10C11C12C13C14C16C19C20C21
+        C22C23C24C25C26C27C28C29C30C32C33C34C35C36C37C38C39
+        C40C41C42C43C44C45C46C60E02E03E04E05E07E08E09E10E11
+        E12E13E14E15E18E19E21E24E25E26E27E30E31E33E34E36G01
+        G02G03G04G05G06G07G08G09G10G11G12G13G14G15G16G17G18
+        G19G20G21G22G23G24G25G26G27G28G29G30G31G32J02J03J04
+        J07R01R02R03R04R05R06R07R08R09R10R11R12R13R14R15R16
+        R17R18R19R20R21R22R23R24R25R26  0  0  0  0  0  0  0
++        17 16 17 16  9  9 10  9  9  9  9  9  9  9  7  7  7
++         8  7  7  7  7  7  7  8  7  7  7  7  8  8  7  8  8
++         8  7  7  7  7  8  7 17  4  5  4  4  4  5  4  4  4
++         4  5  0  5  4  4  4  5  4  4  4  5  4  4  5  5  5
++         4  4  4  4  4  4  4  4  4  4  4  4  4  4  4  4  4
++         4  4  4  4  4  4  4  4  4  4  4  4  4  4 10 10 11
++         0  8  6  6  6  6 15  6  6  6 15  6  6  8  6  6  6
++         6  6  8  8  6  6 15  6  8  8  0  0  0  0  0  0  0
%c M  cc GPS ccc cccc cccc cccc cccc ccccc ccccc ccccc ccccc
%c cc cc ccc ccc cccc cccc cccc cccc ccccc ccccc ccccc ccccc
%f  0.0000000  0.000000000  0.00000000000  0.000000000000000
%f  0.0000000  0.000000000  0.00000000000  0.000000000000000
%i    0    0    0    0      0      0      0      0         0
%i    0    0    0    0      0      0      0      0         0
/* INFORMATION & ANALYSIS CENTER (IAC)            RAPID DATA
/* S/V CLOCKS ARE ALIGNED TO GNSS TIME                      
/* G:C1WC2W R:C1PC2P E:C1XC5X C:C2IC6I J:C1CC2S             
/* PCV:IGS20_2290 OL/AL:FES2004  NONE     YN ORB:CoN CLK:CoN
*  2024 04 03  1  0  0.00000000
PC01 -34312.775451  24478.282440  -1276.949635    890.294491
PC02   4486.806599  41921.548368   -849.810762    568.298805
PC04 -39611.664218  14409.908230  -1065.684648    -93.203846
PC05  21980.967511  35960.406272   -352.976871   -901.406040
PC06 -17007.144370  31881.344372  21557.501847    317.829693
PC07  -5565.149200  38080.603003  17546.719853   -856.452866
PC08  -6071.233065  19382.809794 -36947.551932      8.563362
PC09 -11295.732688  30592.422023  26837.620997   -708.441808
PC10    987.688544  40962.129937  11437.803396     17.931186
PC11  17791.610398 -21183.525015  -3592.338422    492.305567
PC12  19418.321974  -5751.534025 -19167.614892   -224.977476
PC13   2409.304337  23063.127575 -35005.002450    428.896582
PC14   8991.692099 -14915.389965  21807.243217    552.737404
PC16 -21518.260746  31528.218199  17807.713484   -434.547893
PC19  -1614.844196  22069.046963 -16992.207875   -915.971002
PC20 -13806.973360   7273.816145 -23118.744828   -320.694512
PC21  18759.060137  13448.995356  15726.590661   -962.048144
PC22  12192.796379  25110.263127   -750.494816    -52.354448
PC23 -10193.898947 -15559.839896 -20802.844567   -775.515998
PC24  25893.497932  -5199.069462  -8997.123137    946.061075
PC25  10365.471291 -14961.896475 -21160.323561    365.164008
PC26  25912.095187   6475.224641   8009.092896   -271.752467
PC27 -16349.463914  -3597.635003  22302.668103    293.577449
PC28  -4647.503493 -18672.559630  20213.877132    224.255189
PC29 -11407.753139  25056.432656  -4551.265074    263.027667
PC30 -19736.740239  14554.891568  13284.032423    -48.869774
PC32 -18840.415080 -13359.886472 -15627.492244   -594.499265
PC33   1622.273322 -21993.991653  17093.174504   -965.964668
PC34  19571.790383 -15894.122642 -12004.042738    403.855827
PC35   5271.870257  18647.642130 -20081.758831    396.207668
PC36 -11026.353069  14639.448302  21064.311802     39.087090
PC37 -25645.102957  -7254.746903  -8308.327539   -952.565207
PC38 -14614.187806  18453.083545 -34947.938818    146.631709
PC39 -24457.681724  32088.124697  11914.946500     -7.824970
PC40  -9709.283040  35384.654943  21011.674201    -63.677359
PC41 -11721.611135 -25261.300612   1676.468948   -917.280685
PC42  14766.892686  -5514.836086  23077.021761   -444.275744
PC43  12073.152698 -24911.573794   3613.816009     66.535876
PC44  16554.215470   3189.493357 -22260.662765    432.199568
PC45  10171.688370  15468.792516  20868.565423    -78.564929
PC46 -25576.680906   5564.111039   9721.572823   -136.811701
PC60   7287.791734  41496.738034  -1603.531107     -0.521687
PE02  17350.525494  21767.616071  10031.146948    116.334410
PE03   7292.604432  24794.475112  14445.964684   -104.598751
PE04 -16233.610594  -5870.796231 -24031.468650   -364.479250
PE05  -5747.466930  28836.661665  -3412.430452   4734.958830
PE07  15651.005489 -15658.914698  19653.267491   -112.414888
PE08  15921.496388   6758.970661  24028.725949   -248.895580
PE09 -15549.709545  15599.664352 -19773.499457   -393.226584
PE10 -27839.361041   7010.092897   7196.776380   -614.163646
PE11 -26118.979387  13511.386778  -3286.413360   3094.651793
PE12 -25260.635325      8.416878  15403.976393   -976.758471
PE13  26375.366127 -13194.036319   2640.382197    -20.824878
PE14      0.000000      0.000000      0.000000 999999.999999
PE15  24995.985860    318.862304 -15859.939965    -94.854569
PE18  15601.155945  17189.698462 -21447.679733    507.105343
PE19  -5752.976324 -26059.328358 -12791.720282   -314.983294
PE21    390.313654 -19174.232408 -22554.657280   -587.231874
PE24 -18967.294199   4946.299125  22165.094452   -686.098283
PE25   -807.582891  18981.796835  22694.648833      2.880301
PE26  11667.681753 -18892.148609  19580.611812    414.670912
PE27  18667.911284  -5294.787434 -22354.670531   -314.633580
PE30  25702.761178  11724.374603  -8830.923807   -159.212193
PE31 -25734.938265 -11551.725194   8975.803142    -19.841227
PE33  -8413.072958 -13726.135656  24840.016950      9.890806
PE34   9008.769975  13437.869911 -24792.971026   -103.504966
PE36 -12311.509180  18767.379778 -19287.138938   -207.998276
PG01   3540.676317  14424.470336 -22350.125333    177.541134
PG02  -7293.478026  17998.651256 -17509.344785   -459.883144
PG03   5978.261049  18871.020946 -17916.883494    288.874622
PG04  -1382.508906  26307.445737   2788.275660    329.813504
PG05   8195.972949 -12471.364483  21796.689246   -167.724249
PG06  24587.235028  -4380.995358  -9139.298795    339.846214
PG07  13603.599016  10236.363197  20991.493502    -98.631771
PG08  -6213.630971  24667.179420   6714.347478     97.699348
PG09   8617.068429  20651.615990  14187.509737    146.656451
PG10 -23382.872045  -9681.082702  -8374.503573     -4.850636
PG11  23500.480424 -11902.684602   3208.892040   -625.464239
PG12  -3302.984337 -19187.662160 -18379.271046   -493.039541
PG13  13338.607758 -18908.693290  12626.615024    639.509886
PG14  22964.988902  12578.632553  -5026.021189    366.577468
PG15   3082.676970 -25403.191847   6217.331403    144.316129
PG16 -13775.013715   7623.889771  21118.796230   -326.178627
PG17  13203.263569   8616.377150 -20929.814650    711.122274
PG18 -14036.889977  -9143.860099  20668.058195   -587.519713
PG19  15462.789146  -1301.690055 -21698.167593    462.786606
PG20  18567.741955  -5539.782125  18161.481163    381.603843
PG21 -11831.455960  18189.333612 -14132.894078    128.821079
PG22  21967.306000   7486.540761 -12223.290392      6.310763
PG23 -20708.255110 -16464.248313   3361.898832    191.733660
PG24   8243.656356 -19092.600194 -16700.625184   -454.664716
PG25 -13709.404704 -19697.353985 -12004.126904    492.871431
PG26 -22142.632394   -384.061514  14770.534431    171.721815
PG27 -12617.503660  16443.159263  16072.358314    -16.182576
PG28 -23750.228743   2926.156561 -11534.532018   -188.207247
PG29  -5085.149590 -22592.327890  12855.684050   -603.059266
PG30  21955.190886   2176.436127  15115.729552   -410.836101
PG31 -25031.390715   9345.452952  -2004.770496   -228.031622
PG32 -14589.494484  -5064.886043 -21418.580357   -617.478262
PJ02 -26429.431228  21965.845974  29520.980411     -3.606633
PJ03 -35535.758232  22357.544797    532.933737     -0.118535
PJ04 -19699.790124  26640.346619 -20988.373083     50.539017
PJ07      0.000000      0.000000      0.000000 999999.999999
PR01 -11720.364063 -20303.602194 -10027.170443     81.405015
PR02 -12133.686205  -5538.209103 -21705.121072    -22.676749
PR03  -6389.081875  12978.051593 -20941.322894     97.532669
PR04   2642.562452  23790.863727  -8762.908856    230.323571
PR05  10185.926798  21915.041815   8150.879784    129.376679
PR06  12267.622284   3598.095156  22066.863520   -157.397059
PR07   5984.759561 -13853.590139  20626.526990     79.354292
PR08  -2856.976181 -23864.573947   8655.620244    -74.954522
PR09  25111.467729   3526.291174  -3127.244668    178.863732
PR10  18828.295037  -4069.282020 -16688.234270   -144.431436
PR11   1253.207352 -10909.818920 -23014.640113     29.190012
PR12 -18188.292926 -11091.067001 -14019.703541     38.541018
PR13 -24977.640824  -5141.729903    646.349535    -45.913156
PR14 -17222.511825   5167.639296  18091.399309     26.315717
PR15    361.839089  11364.183076  22849.198271     80.825324
PR16  18059.920638  10983.850111  14309.608890     24.488591
PR17 -18328.984376  17610.049065   2350.400256     74.570582
PR18 -10006.936775  19037.570655 -13657.608937    135.238211
PR19   1761.192257  12142.749810 -22365.434969   -271.676503
PR20  16891.321622  -4746.257252 -18531.629179   -110.693754
PR21  18435.612086 -17464.033461  -2304.647175    -89.627596
PR22   9526.145979 -18744.203493  14479.281210    115.262359
PR23  -4965.210525  -9689.404845  23057.707905   -116.741745
PR24 -17161.108112   5626.912149  18031.034892    -50.287984
PR25  18977.518407 -16901.034058  -2116.547101    -26.693587
PR26  -2418.632609 -23488.005846   9644.478835    -26.975082
EOF
